{
  "type": "FeatureCollection",
  "features": [
    {
      "type": "Feature",
      "properties": {
        "norad_id": 47025,
        "name": "FENGYUN 1C DEB",
        "group": "fengyun-1c-debris",
        "lat": 22.320502424870227,
        "lon": -176.33488979396378,
        "alt_km": 709.3260221845339,
        "timestamp": "2025-12-07T05:38:10.194704+00:00",
        "meta_object_name": "FENGYUN 1C DEB",
        "meta_object_id": "1999-025FBB",
        "meta_epoch": "2025-12-06T13:03:48.676032",
        "meta_mean_motion": 14.46155198,
        "meta_eccentricity": 0.00406016,
        "meta_inclination": 99.0314,
        "meta_ra_of_asc_node": 186.674,
        "meta_arg_of_pericenter": 15.2952,
        "meta_mean_anomaly": 14.3922,
        "meta_ephemeris_type": 0,
        "meta_classification_type": "U",
        "meta_norad_cat_id": 47025,
        "meta_element_set_no": 999,
        "meta_rev_at_epoch": 62652,
        "meta_bstar": 0.0035089487,
        "meta_mean_motion_dot": 0.00012641,
        "meta_mean_motion_ddot": 0,
        "tle_line1": "1 47025U 99025FBB 25340.54431338  .00012641  00000+0  35089-2 0  9998",
        "tle_line2": "2 47025  99.0314 186.6740 0040601  15.2952  14.3922 14.46155198626529"
      },
      "geometry": {
        "type": "Point",
        "coordinates": [
          -176.33488979396378,
          22.320502424870227
        ]
      }
    },
    {
      "type": "Feature",
      "properties": {
        "norad_id": 47036,
        "name": "FENGYUN 1C DEB",
        "group": "fengyun-1c-debris",
        "lat": 76.28840431583833,
        "lon": -14.224324464471412,
        "alt_km": 793.0957523740672,
        "timestamp": "2025-12-07T05:38:10.194715+00:00",
        "meta_object_name": "FENGYUN 1C DEB",
        "meta_object_id": "1999-025FBN",
        "meta_epoch": "2025-12-06T08:59:46.290912",
        "meta_mean_motion": 14.15170656,
        "meta_eccentricity": 0.0068755,
        "meta_inclination": 98.723,
        "meta_ra_of_asc_node": 23.9296,
        "meta_arg_of_pericenter": 115.5864,
        "meta_mean_anomaly": 265.3455,
        "meta_ephemeris_type": 0,
        "meta_classification_type": "U",
        "meta_norad_cat_id": 47036,
        "meta_element_set_no": 999,
        "meta_rev_at_epoch": 59837,
        "meta_bstar": 0.00027557823,
        "meta_mean_motion_dot": 5.05e-06,
        "meta_mean_motion_ddot": 0,
        "tle_line1": "1 47036U 99025FBN 25340.37484133  .00000505  00000+0  27558-3 0  9991",
        "tle_line2": "2 47036  98.7230  23.9296 0068755 115.5864 265.3455 14.15170656598371"
      },
      "geometry": {
        "type": "Point",
        "coordinates": [
          -14.224324464471412,
          76.28840431583833
        ]
      }
    },
    {
      "type": "Feature",
      "properties": {
        "norad_id": 47040,
        "name": "FENGYUN 1C DEB",
        "group": "fengyun-1c-debris",
        "lat": 36.818033759491485,
        "lon": -120.57059021395823,
        "alt_km": 908.2177701818691,
        "timestamp": "2025-12-07T05:38:10.194725+00:00",
        "meta_object_name": "FENGYUN 1C DEB",
        "meta_object_id": "1999-025FBS",
        "meta_epoch": "2025-12-03T10:58:10.539552",
        "meta_mean_motion": 14.06462065,
        "meta_eccentricity": 0.0063058,
        "meta_inclination": 100.2943,
        "meta_ra_of_asc_node": 242.958,
        "meta_arg_of_pericenter": 257.8027,
        "meta_mean_anomaly": 101.6069,
        "meta_ephemeris_type": 0,
        "meta_classification_type": "U",
        "meta_norad_cat_id": 47040,
        "meta_element_set_no": 999,
        "meta_rev_at_epoch": 88978,
        "meta_bstar": 0.0008721929,
        "meta_mean_motion_dot": 1.412e-05,
        "meta_mean_motion_ddot": 0,
        "tle_line1": "1 47040U 99025FBS 25337.45706643  .00001412  00000+0  87219-3 0  9992",
        "tle_line2": "2 47040 100.2943 242.9580 0063058 257.8027 101.6069 14.06462065889786"
      },
      "geometry": {
        "type": "Point",
        "coordinates": [
          -120.57059021395823,
          36.818033759491485
        ]
      }
    },
    {
      "type": "Feature",
      "properties": {
        "norad_id": 47041,
        "name": "FENGYUN 1C DEB",
        "group": "fengyun-1c-debris",
        "lat": 49.45273305200922,
        "lon": -162.8655040905322,
        "alt_km": 539.1523522474681,
        "timestamp": "2025-12-07T05:38:10.194735+00:00",
        "meta_object_name": "FENGYUN 1C DEB",
        "meta_object_id": "1999-025FBT",
        "meta_epoch": "2025-12-06T08:24:03.792096",
        "meta_mean_motion": 15.0661182,
        "meta_eccentricity": 0.0014485,
        "meta_inclination": 98.2589,
        "meta_ra_of_asc_node": 6.411,
        "meta_arg_of_pericenter": 207.4321,
        "meta_mean_anomaly": 166.3482,
        "meta_ephemeris_type": 0,
        "meta_classification_type": "U",
        "meta_norad_cat_id": 47041,
        "meta_element_set_no": 999,
        "meta_rev_at_epoch": 71093,
        "meta_bstar": 0.0035938592,
        "meta_mean_motion_dot": 0.00053672,
        "meta_mean_motion_ddot": 0,
        "tle_line1": "1 47041U 99025FBT 25340.35004389  .00053672  00000+0  35939-2 0  9990",
        "tle_line2": "2 47041  98.2589   6.4110 0014485 207.4321 166.3482 15.06611820710932"
      },
      "geometry": {
        "type": "Point",
        "coordinates": [
          -162.8655040905322,
          49.45273305200922
        ]
      }
    },
    {
      "type": "Feature",
      "properties": {
        "norad_id": 47042,
        "name": "FENGYUN 1C DEB",
        "group": "fengyun-1c-debris",
        "lat": 26.041398211221644,
        "lon": -125.82269742504288,
        "alt_km": 778.1874549273252,
        "timestamp": "2025-12-07T05:38:10.194745+00:00",
        "meta_object_name": "FENGYUN 1C DEB",
        "meta_object_id": "1999-025FBU",
        "meta_epoch": "2025-12-02T22:50:44.179872",
        "meta_mean_motion": 14.22815893,
        "meta_eccentricity": 0.00555195,
        "meta_inclination": 99.0007,
        "meta_ra_of_asc_node": 234.2444,
        "meta_arg_of_pericenter": 62.265,
        "meta_mean_anomaly": 358.9067,
        "meta_ephemeris_type": 0,
        "meta_classification_type": "U",
        "meta_norad_cat_id": 47042,
        "meta_element_set_no": 999,
        "meta_rev_at_epoch": 62382,
        "meta_bstar": 0.00035803178,
        "meta_mean_motion_dot": 7.7e-06,
        "meta_mean_motion_ddot": 0,
        "tle_line1": "1 47042U 99025FBU 25336.95190023  .00000770  00000+0  35803-3 0  9995",
        "tle_line2": "2 47042  99.0007 234.2444 0055519  62.2650 358.9067 14.22815893623825"
      },
      "geometry": {
        "type": "Point",
        "coordinates": [
          -125.82269742504288,
          26.041398211221644
        ]
      }
    },
    {
      "type": "Feature",
      "properties": {
        "norad_id": 47100,
        "name": "FENGYUN 1C DEB",
        "group": "fengyun-1c-debris",
        "lat": -51.708352710873015,
        "lon": 171.96714518918284,
        "alt_km": 698.8118810178858,
        "timestamp": "2025-12-07T05:38:10.194754+00:00",
        "meta_object_name": "FENGYUN 1C DEB",
        "meta_object_id": "1999-025FBY",
        "meta_epoch": "2025-12-06T00:05:28.916160",
        "meta_mean_motion": 14.51271868,
        "meta_eccentricity": 0.00893393,
        "meta_inclination": 99.0203,
        "meta_ra_of_asc_node": 159.0401,
        "meta_arg_of_pericenter": 13.8755,
        "meta_mean_anomaly": 346.4862,
        "meta_ephemeris_type": 0,
        "meta_classification_type": "U",
        "meta_norad_cat_id": 47100,
        "meta_element_set_no": 999,
        "meta_rev_at_epoch": 26670,
        "meta_bstar": 0.0027313852,
        "meta_mean_motion_dot": 0.00011405,
        "meta_mean_motion_ddot": 0,
        "tle_line1": "1 47100U 99025FBY 25340.00380690  .00011405  00000+0  27314-2 0  9996",
        "tle_line2": "2 47100  99.0203 159.0401 0089339  13.8755 346.4862 14.51271868266705"
      },
      "geometry": {
        "type": "Point",
        "coordinates": [
          171.96714518918284,
          -51.708352710873015
        ]
      }
    },
    {
      "type": "Feature",
      "properties": {
        "norad_id": 47104,
        "name": "FENGYUN 1C DEB",
        "group": "fengyun-1c-debris",
        "lat": 26.007747869947668,
        "lon": -164.85420189891946,
        "alt_km": 853.9613402027308,
        "timestamp": "2025-12-07T05:38:10.194764+00:00",
        "meta_object_name": "FENGYUN 1C DEB",
        "meta_object_id": "1999-025FCC",
        "meta_epoch": "2025-12-05T07:14:15.762912",
        "meta_mean_motion": 14.19416271,
        "meta_eccentricity": 0.00406545,
        "meta_inclination": 98.9092,
        "meta_ra_of_asc_node": 8.8127,
        "meta_arg_of_pericenter": 358.5803,
        "meta_mean_anomaly": 1.5251,
        "meta_ephemeris_type": 0,
        "meta_classification_type": "U",
        "meta_norad_cat_id": 47104,
        "meta_element_set_no": 999,
        "meta_rev_at_epoch": 62267,
        "meta_bstar": 0.00037828604,
        "meta_mean_motion_dot": 7.57e-06,
        "meta_mean_motion_ddot": 0,
        "tle_line1": "1 47104U 99025FCC 25339.30157133  .00000757  00000+0  37829-3 0  9996",
        "tle_line2": "2 47104  98.9092   8.8127 0040654 358.5803   1.5251 14.19416271622675"
      },
      "geometry": {
        "type": "Point",
        "coordinates": [
          -164.85420189891946,
          26.007747869947668
        ]
      }
    }
  ]
}